OBJECT_NAME,OBJECT_ID,EPOCH,MEAN_MOTION,ECCENTRICITY,INCLINATION,RA_OF_ASC_NODE,ARG_OF_PERICENTER,MEAN_ANOMALY,EPHEMERIS_TYPE,CLASSIFICATION_TYPE,NORAD_CAT_ID,ELEMENT_SET_NO,REV_AT_EPOCH,BSTAR,MEAN_MOTION_DOT,MEAN_MOTION_DDOT
SL-12 R/B(2),1985-042D,2026-07-06T10:54:11.843136,14.22009605,.00371582,71.1060,196.8091,299.0376,212.9024,0,U,15772,999,13127,.76369855E-4,.122E-5,0
SL-14 R/B,1985-069B,2026-07-07T03:52:01.396128,14.86531221,.0019518,82.5269,272.5818,152.4603,207.7652,0,U,15945,999,19058,.3938E-4,.374E-5,0
SL-16 R/B,1985-097B,2026-07-07T02:25:35.464224,14.16613430,.0005325,71.0019,249.1538,67.6367,310.3299,0,U,16182,999,10414,-.1058E-3,-.259E-5,0
SL-14 R/B,1986-006B,2026-07-06T23:17:17.964384,14.86963737,.0074919,82.5276,147.4964,236.5438,122.8602,0,U,16496,999,16693,.44869E-4,.448E-5,0
COSMOS 1743,1986-034A,2026-07-06T08:35:34.446048,15.68872548,.00049771,82.5278,308.3228,205.5763,154.5253,0,U,16719,999,19879,.4775169E-3,.55015E-3,0
SL-14 R/B,1986-046B,2026-07-06T21:16:55.789248,14.85686066,.0022777,82.4832,327.5601,190.3579,169.7171,0,U,16792,999,14410,.45555E-4,.421E-5,0
SL-14 R/B,1986-055B,2026-07-07T00:45:59.359392,14.85736494,.0017498,82.5197,14.4725,299.7077,222.5798,0,U,16882,999,13708,.38426E-4,.358E-5,0
AJISAI (EGS),1986-061A,2026-07-07T03:40:34.743360,12.44516690,.0011114,50.0096,86.0005,231.3663,293.5642,0,U,16908,999,48287,.4524E-5,-.97E-6,0
SL-14 R/B,1987-024B,2026-07-06T21:02:38.236416,14.86227313,.0017171,82.5291,340.7420,222.5053,137.4835,0,U,17567,999,10583,.42174E-4,.396E-5,0
COSMOS 1833,1987-027A,2026-07-07T03:24:01.279008,14.13063646,.0023679,70.9211,74.9275,21.8605,338.3520,0,U,17589,999,2719,.12295E-3,.182E-5,0
SL-16 R/B,1987-027B,2026-07-06T21:49:05.114208,14.17174521,.0007105,71.0031,25.2686,290.7619,69.2743,0,U,17590,999,3223,-.82117E-4,-.214E-5,0
SL-14 R/B,1987-038B,2026-07-07T00:00:45.646848,14.85457604,.0020533,82.5004,184.4085,127.4662,232.8426,0,U,17912,999,9694,.38657E-4,.359E-5,0
COSMOS 1844,1987-041A,2026-07-06T21:46:03.985248,14.14576024,.0031838,70.8987,142.7112,206.9743,152.9725,0,U,17973,999,2044,.20943E-3,.356E-5,0
SL-14 R/B,1987-055B,2026-07-07T02:11:09.090816,14.85723677,.0020043,82.4977,236.4660,343.0325,17.0218,0,U,18153,999,8766,.32078E-4,.303E-5,0
COSMOS 1867,1987-060A,2026-07-06T16:39:45.222624,14.31517874,.0016958,65.0119,333.4268,282.0909,77.8275,0,U,18187,999,3697,.25473E-4,-.32E-6,0
SL-14 R/B,1988-001B,2026-07-07T03:53:04.903584,14.85623283,.0017429,82.5130,82.9819,198.5913,161.4668,0,U,18749,999,5976,.34369E-4,.322E-5,0
COSMOS 1933,1988-020A,2026-07-07T01:35:36.808800,15.18851129,.0005569,82.5133,132.7483,127.9211,232.2527,0,U,18958,999,6834,.15843E-3,.3331E-4,0
SL-3 R/B,1988-032B,2026-07-07T02:41:48.607296,15.20990474,.0025701,97.5268,171.1353,173.1480,187.0112,0,U,19046,999,7025,.15075E-3,.3298E-4,0
SL-16 R/B,1988-039B,2026-07-06T23:47:16.980864,14.19632005,.0021073,71.0130,176.2820,162.4747,197.7110,0,U,19120,999,97531,.53881E-4,.66E-6,0
COSMOS 1953,1988-050A,2026-07-06T15:18:29.787264,15.30255230,.0012132,82.5065,38.4148,66.9975,293.2544,0,U,19210,999,5596,.18613E-3,.5491E-4,0
SL-8 R/B,1988-053B,2026-07-07T03:51:40.578048,14.38975547,.0019465,74.0467,252.2397,40.3863,349.0507,0,U,19257,999,99378,.58385E-4,.154E-5,0
COSMOS 1975,1988-093A,2026-07-06T21:54:17.635104,15.29594119,.0012537,82.5199,357.8550,108.0420,252.2188,0,U,19573,999,3762,.16837E-3,.4872E-4,0
SL-14 R/B,1988-093B,2026-07-06T21:15:09.087840,14.85756293,.002076,82.5319,290.1523,8.1264,131.0984,0,U,19574,999,1871,.36476E-4,.342E-5,0
SL-16 R/B,1988-102B,2026-07-07T03:15:52.452000,14.16169164,.001473,70.9995,260.1649,197.8387,162.2221,0,U,19650,999,94380,-.71429E-4,-.189E-5,0
INTERCOSMOS 24,1989-080A,2026-07-06T22:49:01.197120,12.59687518,.1187636,82.6048,26.7825,16.0793,347.4806,0,U,20261,999,68181,.13904E-3,.49E-5,0
SL-14 R/B,1989-080C,2026-07-07T03:53:29.545728,12.50577340,.1228439,82.5942,96.4743,271.6759,74.4350,0,U,20262,999,67508,.29616E-4,.99E-6,0
DELTA 1 R/B,1989-089B,2026-07-07T00:20:46.199040,14.50744229,.0070545,97.0634,16.3996,105.2394,255.6618,0,U,20323,999,91303,.76554E-4,.276E-5,0
ARIANE 40 R/B,1990-005H,2026-07-07T03:02:31.795296,14.39938063,.000971,98.2948,245.1219,198.2846,161.7995,0,U,20443,999,90999,.77609E-4,.202E-5,0
DELTA 2 R/B(1),1990-008B,2026-07-07T03:37:52.824576,15.72328797,.0062651,35.6000,101.7768,300.8841,58.5750,0,U,20453,999,94484,.55418E-3,.86839E-3,0
COSMOS 2058,1990-010A,2026-07-06T18:57:17.576064,15.12130715,.0008043,82.4679,290.0239,285.8486,74.1857,0,U,20465,999,96023,.11579E-3,.2025E-4,0
SL-14 R/B,1990-010B,2026-07-06T22:17:11.159232,14.83659471,.0018152,82.5027,155.4049,266.7519,93.1619,0,U,20466,999,94616,.40941E-4,.362E-5,0
